[{"OBJECT_NAME":"STARLINK-2480","OBJECT_ID":"2021-027AX","EPOCH":"2026-03-10T00:00:02.999808","MEAN_MOTION":15.0892407,"ECCENTRICITY":0.00016687,"INCLINATION":53.0606,"RA_OF_ASC_NODE":150.1899,"ARG_OF_PERICENTER":123.9826,"MEAN_ANOMALY":133.8793,"EPHEMERIS_TYPE":0,"CLASSIFICATION_TYPE":"U","NORAD_CAT_ID":48137,"ELEMENT_SET_NO":999,"REV_AT_EPOCH":579,"BSTAR":0.0053933076,"MEAN_MOTION_DOT":0.00086813,"MEAN_MOTION_DDOT":0},{"OBJECT_NAME":"ONEWEB-0618","OBJECT_ID":"2023-004V","EPOCH":"2026-03-09T21:27:12.326688","MEAN_MOTION":15.11974897,"ECCENTRICITY":0.00107842,"INCLINATION":86.9069,"RA_OF_ASC_NODE":217.8931,"ARG_OF_PERICENTER":307.7231,"MEAN_ANOMALY":52.303,"EPHEMERIS_TYPE":0,"CLASSIFICATION_TYPE":"U","NORAD_CAT_ID":55159,"ELEMENT_SET_NO":999,"REV_AT_EPOCH":16725,"BSTAR":0.00049587895,"MEAN_MOTION_DOT":8.547e-5,"MEAN_MOTION_DDOT":0}]
